{
  "type": "FeatureCollection",
  "features": [
    {
      "type": "Feature",
      "properties": {
        "name": "Ljubljana outskirts to Tivoli Park"
      },
      "geometry": {
        "type": "LineString",
        "coordinates": [
          [14.5600, 46.0300],
          [14.5576, 46.0315],
          [14.5552, 46.0334],
          [14.5528, 46.0359],
          [14.5504, 46.0381],
          [14.5479, 46.0405],
          [14.5449, 46.0428],
          [14.5421, 46.0449],
          [14.5393, 46.0468],
          [14.5368, 46.0486],
          [14.5340, 46.0503],
          [14.5311, 46.0518],
          [14.5281, 46.0532],
          [14.5251, 46.0544],
          [14.5222, 46.0556],
          [14.5193, 46.0566],
          [14.5162, 46.0576],
          [14.5130, 46.0584],
          [14.5098, 46.0589],
          [14.5067, 46.0592],
          [14.5039, 46.0594],
          [14.5010, 46.0594],
          [14.4983, 46.0593],
          [14.4976, 46.0593]
        ]
      }
    }
  ]
}
