{
  "type": "FeatureCollection",
  "features": [
    {
      "type": "Feature",
      "properties": {
        "name": "Prešeren Square to Tivoli"
      },
      "geometry": {
        "type": "LineString",
        "coordinates": [
          [14.5060, 46.0511],
          [14.5057, 46.0516],
          [14.5053, 46.0521],
          [14.5049, 46.0526],
          [14.5043, 46.0531],
          [14.5036, 46.0535],
          [14.5028, 46.0539],
          [14.5021, 46.0543],
          [14.5013, 46.0548],
          [14.5007, 46.0553],
          [14.5000, 46.0559],
          [14.4994, 46.0564],
          [14.4989, 46.0570],
          [14.4985, 46.0575],
          [14.4982, 46.0580],
          [14.4979, 46.0584],
          [14.4977, 46.0588],
          [14.4976, 46.0591],
          [14.4976, 46.0593]
        ]
      }
    }
  ]
}
